{
  "type": "FeatureCollection",
  "features": [
    {
      "type": "Feature",
      "properties": {
        "norad_id": 40362,
        "name": "YAOGAN-26",
        "group": "resource",
        "lat": -80.33618301845347,
        "lon": 28.112609879226053,
        "alt_km": 459.6061603203025,
        "timestamp": "2025-12-06T11:28:10.686396+00:00",
        "meta_object_name": "YAOGAN-26",
        "meta_object_id": "2014-088A",
        "meta_epoch": "2025-12-05T23:20:50.724384",
        "meta_mean_motion": 15.38942152,
        "meta_eccentricity": 0.00070324,
        "meta_inclination": 97.0637,
        "meta_ra_of_asc_node": 340.8896,
        "meta_arg_of_pericenter": 48.3251,
        "meta_mean_anomaly": 311.8596,
        "meta_ephemeris_type": 0,
        "meta_classification_type": "U",
        "meta_norad_cat_id": 40362,
        "meta_element_set_no": 999,
        "meta_rev_at_epoch": 60790,
        "meta_bstar": 0.00069412502,
        "meta_mean_motion_dot": 0.00026754,
        "meta_mean_motion_ddot": 0,
        "tle_line1": "1 40362U 14088A   25339.97280931  .00026754  00000+0  69413-3 0  9996",
        "tle_line2": "2 40362  97.0637 340.8896 0007032  48.3251 311.8596 15.38942152607907"
      },
      "geometry": {
        "type": "Point",
        "coordinates": [
          28.112609879226053,
          -80.33618301845347
        ]
      }
    },
    {
      "type": "Feature",
      "properties": {
        "norad_id": 40376,
        "name": "SMAP",
        "group": "resource",
        "lat": 69.35747752675263,
        "lon": -37.00502584787783,
        "alt_km": 674.8762939817098,
        "timestamp": "2025-12-06T11:28:10.686406+00:00",
        "meta_object_name": "SMAP",
        "meta_object_id": "2015-003A",
        "meta_epoch": "2025-12-05T23:39:32.703552",
        "meta_mean_motion": 14.63331549,
        "meta_eccentricity": 0.00012057,
        "meta_inclination": 98.129,
        "meta_ra_of_asc_node": 344.8071,
        "meta_arg_of_pericenter": 87.7814,
        "meta_mean_anomaly": 272.3526,
        "meta_ephemeris_type": 0,
        "meta_classification_type": "U",
        "meta_norad_cat_id": 40376,
        "meta_element_set_no": 999,
        "meta_rev_at_epoch": 57936,
        "meta_bstar": 0.00021445672,
        "meta_mean_motion_dot": 1.06e-05,
        "meta_mean_motion_ddot": 0,
        "tle_line1": "1 40376U 15003A   25339.98579518  .00001060  00000+0  21446-3 0  9999",
        "tle_line2": "2 40376  98.1290 344.8071 0001205  87.7814 272.3526 14.63331549579367"
      },
      "geometry": {
        "type": "Point",
        "coordinates": [
          -37.00502584787783,
          69.35747752675263
        ]
      }
    },
    {
      "type": "Feature",
      "properties": {
        "norad_id": 40536,
        "name": "KOMPSAT-3A",
        "group": "resource",
        "lat": 66.36371779588973,
        "lon": 152.43498846275057,
        "alt_km": 426.51544533193373,
        "timestamp": "2025-12-06T11:28:10.686416+00:00",
        "meta_object_name": "KOMPSAT-3A",
        "meta_object_id": "2015-014A",
        "meta_epoch": "2025-12-05T22:32:16.720224",
        "meta_mean_motion": 15.43579747,
        "meta_eccentricity": 0.00041314,
        "meta_inclination": 97.678,
        "meta_ra_of_asc_node": 313.912,
        "meta_arg_of_pericenter": 141.4691,
        "meta_mean_anomaly": 218.6851,
        "meta_ephemeris_type": 0,
        "meta_classification_type": "U",
        "meta_norad_cat_id": 40536,
        "meta_element_set_no": 999,
        "meta_rev_at_epoch": 59190,
        "meta_bstar": 0.00060196697,
        "meta_mean_motion_dot": 0.00027024,
        "meta_mean_motion_ddot": 0,
        "tle_line1": "1 40536U 15014A   25339.93908241  .00027024  00000+0  60197-3 0  9997",
        "tle_line2": "2 40536  97.6780 313.9120 0004131 141.4691 218.6851 15.43579747591908"
      },
      "geometry": {
        "type": "Point",
        "coordinates": [
          152.43498846275057,
          66.36371779588973
        ]
      }
    },
    {
      "type": "Feature",
      "properties": {
        "norad_id": 40697,
        "name": "SENTINEL-2A",
        "group": "resource",
        "lat": -48.19873014975763,
        "lon": 62.809420647343075,
        "alt_km": 796.3696497873843,
        "timestamp": "2025-12-06T11:28:10.686426+00:00",
        "meta_object_name": "SENTINEL-2A",
        "meta_object_id": "2015-028A",
        "meta_epoch": "2025-12-05T22:16:17.041728",
        "meta_mean_motion": 14.30823199,
        "meta_eccentricity": 0.00010365,
        "meta_inclination": 98.5702,
        "meta_ra_of_asc_node": 52.5578,
        "meta_arg_of_pericenter": 94.4129,
        "meta_mean_anomaly": 265.7172,
        "meta_ephemeris_type": 0,
        "meta_classification_type": "U",
        "meta_norad_cat_id": 40697,
        "meta_element_set_no": 999,
        "meta_rev_at_epoch": 54609,
        "meta_bstar": 0.00013713602,
        "meta_mean_motion_dot": 3.16e-06,
        "meta_mean_motion_ddot": 0,
        "tle_line1": "1 40697U 15028A   25339.92797502  .00000316  00000+0  13714-3 0  9993",
        "tle_line2": "2 40697  98.5702  52.5578 0001036  94.4129 265.7172 14.30823199546094"
      },
      "geometry": {
        "type": "Point",
        "coordinates": [
          62.809420647343075,
          -48.19873014975763
        ]
      }
    },
    {
      "type": "Feature",
      "properties": {
        "norad_id": 40701,
        "name": "GAOFEN-8",
        "group": "resource",
        "lat": 79.71164143305703,
        "lon": 26.42759925960672,
        "alt_km": 440.4736155380233,
        "timestamp": "2025-12-06T11:28:10.686437+00:00",
        "meta_object_name": "GAOFEN-8",
        "meta_object_id": "2015-030A",
        "meta_epoch": "2025-12-05T22:33:35.558496",
        "meta_mean_motion": 15.38205776,
        "meta_eccentricity": 0.00113167,
        "meta_inclination": 97.6907,
        "meta_ra_of_asc_node": 157.7509,
        "meta_arg_of_pericenter": 161.9516,
        "meta_mean_anomaly": 198.2133,
        "meta_ephemeris_type": 0,
        "meta_classification_type": "U",
        "meta_norad_cat_id": 40701,
        "meta_element_set_no": 999,
        "meta_rev_at_epoch": 58166,
        "meta_bstar": 0.0006764667,
        "meta_mean_motion_dot": 0.00025476,
        "meta_mean_motion_ddot": 0,
        "tle_line1": "1 40701U 15030A   25339.93999489  .00025476  00000+0  67647-3 0  9999",
        "tle_line2": "2 40701  97.6907 157.7509 0011316 161.9516 198.2133 15.38205776581664"
      },
      "geometry": {
        "type": "Point",
        "coordinates": [
          26.42759925960672,
          79.71164143305703
        ]
      }
    },
    {
      "type": "Feature",
      "properties": {
        "norad_id": 40718,
        "name": "CARBONITE 1 (CBNT-1)",
        "group": "resource",
        "lat": -21.36004942331008,
        "lon": -21.211379017425454,
        "alt_km": 616.3905521607676,
        "timestamp": "2025-12-06T11:28:10.686447+00:00",
        "meta_object_name": "CARBONITE 1 (CBNT-1)",
        "meta_object_id": "2015-032D",
        "meta_epoch": "2025-12-05T23:13:33.178368",
        "meta_mean_motion": 14.82693664,
        "meta_eccentricity": 0.00139625,
        "meta_inclination": 97.6401,
        "meta_ra_of_asc_node": 161.3104,
        "meta_arg_of_pericenter": 204.1421,
        "meta_mean_anomaly": 155.9141,
        "meta_ephemeris_type": 0,
        "meta_classification_type": "U",
        "meta_norad_cat_id": 40718,
        "meta_element_set_no": 999,
        "meta_rev_at_epoch": 56070,
        "meta_bstar": 0.0005003404,
        "meta_mean_motion_dot": 3.993e-05,
        "meta_mean_motion_ddot": 0,
        "tle_line1": "1 40718U 15032D   25339.96774512  .00003993  00000+0  50034-3 0  9992",
        "tle_line2": "2 40718  97.6401 161.3104 0013962 204.1421 155.9141 14.82693664560703"
      },
      "geometry": {
        "type": "Point",
        "coordinates": [
          -21.211379017425454,
          -21.36004942331008
        ]
      }
    },
    {
      "type": "Feature",
      "properties": {
        "norad_id": 40878,
        "name": "YAOGAN-27",
        "group": "resource",
        "lat": 49.548287721327,
        "lon": -41.68535557585525,
        "alt_km": 1197.0077237591759,
        "timestamp": "2025-12-06T11:28:10.686457+00:00",
        "meta_object_name": "YAOGAN-27",
        "meta_object_id": "2015-040A",
        "meta_epoch": "2025-12-05T22:26:30.422112",
        "meta_mean_motion": 13.16059908,
        "meta_eccentricity": 0.00077004,
        "meta_inclination": 100.1006,
        "meta_ra_of_asc_node": 329.8631,
        "meta_arg_of_pericenter": 303.4304,
        "meta_mean_anomaly": 56.6073,
        "meta_ephemeris_type": 0,
        "meta_classification_type": "U",
        "meta_norad_cat_id": 40878,
        "meta_element_set_no": 999,
        "meta_rev_at_epoch": 49224,
        "meta_bstar": 0.00016925671,
        "meta_mean_motion_dot": 2.2e-07,
        "meta_mean_motion_ddot": 0,
        "tle_line1": "1 40878U 15040A   25339.93507433  .00000022  00000+0  16926-3 0  9993",
        "tle_line2": "2 40878 100.1006 329.8631 0007700 303.4304  56.6073 13.16059908492240"
      },
      "geometry": {
        "type": "Point",
        "coordinates": [
          -41.68535557585525,
          49.548287721327
        ]
      }
    }
  ]
}